start=new Date('2022-01-06T00:00:00.000Z').valueOf();
sats=[{"TLE_LINE1":"1 50197U 21125AT  22004.07780553 -.00433187  00000-0 -24933-2 0  9997","TLE_LINE2":"2 50197  53.2206 283.6897 0001269  89.7940 270.3228 15.79144854  5434","DECAY_DATE":null,"GP_ID":"193224232","MEAN_MOTION_DDOT":"0.0000000000000","SEMIMAJOR_AXIS":"6710.999","FILE":"3264358","ECCENTRICITY":"0.00012690","OBJECT_TYPE":"PAYLOAD","EPOCH":"2022-01-04T01:52:02.397792","ELEMENT_SET_NO":"999","NORAD_CAT_ID":"50197","MEAN_ANOMALY":"270.3228","TIME_SYSTEM":"UTC","EPHEMERIS_TYPE":"0","COUNTRY_CODE":"US","PERIOD":"91.189","CLASSIFICATION_TYPE":"U","REF_FRAME":"TEME","CENTER_NAME":"EARTH","BSTAR":"-0.00249330000000","APOAPSIS":"333.716","SITE":"AFWTR","MEAN_MOTION":"15.79144854","ARG_OF_PERICENTER":"89.7940","INCLINATION":"53.2206","PERIAPSIS":"332.013","RA_OF_ASC_NODE":"283.6897","RCS_SIZE":"LARGE","MEAN_ELEMENT_THEORY":"SGP4","MEAN_MOTION_DOT":"-0.00433187","REV_AT_EPOCH":"543","OBJECT_ID":"2021-125AT","OBJECT_NAME":"STARLINK-3267","LAUNCH_DATE":"2021-12-18"},{"REV_AT_EPOCH":"511","MEAN_MOTION_DOT":"-0.00824444","MEAN_ELEMENT_THEORY":"SGP4","LAUNCH_DATE":"2021-12-18","OBJECT_NAME":"STARLINK-3264","OBJECT_ID":"2021-125AU","BSTAR":"-0.00429690000000","CENTER_NAME":"EARTH","REF_FRAME":"TEME","RCS_SIZE":"LARGE","PERIAPSIS":"323.252","RA_OF_ASC_NODE":"293.6558","INCLINATION":"53.2176","ARG_OF_PERICENTER":"100.8374","MEAN_MOTION":"15.82274187","APOAPSIS":"324.774","SITE":"AFWTR","TIME_SYSTEM":"UTC","MEAN_ANOMALY":"67.6263","NORAD_CAT_ID":"50198","CLASSIFICATION_TYPE":"U","PERIOD":"91.008","COUNTRY_CODE":"US","EPHEMERIS_TYPE":"0","GP_ID":"192994657","SEMIMAJOR_AXIS":"6702.148","MEAN_MOTION_DDOT":"0.0000000000000","DECAY_DATE":null,"TLE_LINE2":"2 50198  53.2176 293.6558 0001135 100.8374  67.6263 15.82274187  5112","TLE_LINE1":"1 50198U 21125AU  22002.08334491 -.00824444  00000-0 -42969-2 0  9992","ELEMENT_SET_NO":"999","EPOCH":"2022-01-02T02:00:01.000224","OBJECT_TYPE":"PAYLOAD","FILE":"3256392","ECCENTRICITY":"0.00011350"},{"ELEMENT_SET_NO":"999","EPOCH":"2022-01-02T10:00:00.999936","OBJECT_TYPE":"PAYLOAD","ECCENTRICITY":"0.00010500","FILE":"3258836","GP_ID":"193066687","SEMIMAJOR_AXIS":"6703.817","MEAN_MOTION_DDOT":"0.0000000000000","TLE_LINE2":"2 50199  53.2174 291.9646 0001050  82.4410 195.0049 15.81683319  5176","DECAY_DATE":null,"TLE_LINE1":"1 50199U 21125AV  22002.41667824 -.00829910  00000-0 -44503-2 0  9998","CLASSIFICATION_TYPE":"U","COUNTRY_CODE":"US","PERIOD":"91.042","EPHEMERIS_TYPE":"0","TIME_SYSTEM":"UTC","NORAD_CAT_ID":"50199","MEAN_ANOMALY":"195.0049","RCS_SIZE":"LARGE","INCLINATION":"53.2174","RA_OF_ASC_NODE":"291.9646","PERIAPSIS":"324.978","MEAN_MOTION":"15.81683319","ARG_OF_PERICENTER":"82.4410","APOAPSIS":"326.386","SITE":"AFWTR","BSTAR":"-0.00445030000000","CENTER_NAME":"EARTH","REF_FRAME":"TEME","LAUNCH_DATE":"2021-12-18","OBJECT_ID":"2021-125AV","OBJECT_NAME":"STARLINK-3270","MEAN_MOTION_DOT":"-0.00829910","REV_AT_EPOCH":"517","MEAN_ELEMENT_THEORY":"SGP4"},{"MEAN_MOTION":"15.82099959","ARG_OF_PERICENTER":"105.9979","SITE":"AFWTR","APOAPSIS":"325.281","RCS_SIZE":"LARGE","INCLINATION":"53.2176","PERIAPSIS":"323.729","RA_OF_ASC_NODE":"293.2413","CENTER_NAME":"EARTH","REF_FRAME":"TEME","BSTAR":"-0.00432860000000","OBJECT_ID":"2021-125AW","OBJECT_NAME":"STARLINK-3235","LAUNCH_DATE":"2021-12-18","MEAN_ELEMENT_THEORY":"SGP4","MEAN_MOTION_DOT":"-0.00823803","REV_AT_EPOCH":"513","EPOCH":"2022-01-02T04:00:00.999936","OBJECT_TYPE":"PAYLOAD","ECCENTRICITY":"0.00011580","FILE":"3256392","ELEMENT_SET_NO":"999","TLE_LINE1":"1 50200U 21125AW  22002.16667824 -.00823803  00000-0 -43286-2 0  9995","SEMIMAJOR_AXIS":"6702.640","GP_ID":"192994161","MEAN_MOTION_DDOT":"0.0000000000000","TLE_LINE2":"2 50200  53.2176 293.2413 0001158 105.9979 176.0177 15.82099959  5137","DECAY_DATE":null,"COUNTRY_CODE":"US","PERIOD":"91.018","EPHEMERIS_TYPE":"0","CLASSIFICATION_TYPE":"U","TIME_SYSTEM":"UTC","NORAD_CAT_ID":"50200","MEAN_ANOMALY":"176.0177"},{"LAUNCH_DATE":"2021-12-18","OBJECT_ID":"2021-125AX","OBJECT_NAME":"STARLINK-3255","MEAN_MOTION_DOT":"-0.00825176","REV_AT_EPOCH":"511","MEAN_ELEMENT_THEORY":"SGP4","INCLINATION":"53.2177","PERIAPSIS":"323.159","RA_OF_ASC_NODE":"293.6533","RCS_SIZE":"LARGE","APOAPSIS":"324.681","SITE":"AFWTR","MEAN_MOTION":"15.82307125","ARG_OF_PERICENTER":"93.7782","BSTAR":"-0.00429440000000","REF_FRAME":"TEME","CENTER_NAME":"EARTH","CLASSIFICATION_TYPE":"U","EPHEMERIS_TYPE":"0","COUNTRY_CODE":"US","PERIOD":"91.006","NORAD_CAT_ID":"50201","MEAN_ANOMALY":"75.9546","TIME_SYSTEM":"UTC","ELEMENT_SET_NO":"999","ECCENTRICITY":"0.00011360","FILE":"3256392","EPOCH":"2022-01-02T02:00:01.000224","OBJECT_TYPE":"PAYLOAD","TLE_LINE2":"2 50201  53.2177 293.6533 0001136  93.7782  75.9546 15.82307125  5110","DECAY_DATE":null,"SEMIMAJOR_AXIS":"6702.055","GP_ID":"192994658","MEAN_MOTION_DDOT":"0.0000000000000","TLE_LINE1":"1 50201U 21125AX  22002.08334491 -.00825176  00000-0 -42944-2 0  9993"},{"OBJECT_NAME":"STARLINK-3256","OBJECT_ID":"2021-125AY","LAUNCH_DATE":"2021-12-18","MEAN_ELEMENT_THEORY":"SGP4","REV_AT_EPOCH":"557","MEAN_MOTION_DOT":"-0.00063814","ARG_OF_PERICENTER":"236.7937","MEAN_MOTION":"15.90515507","APOAPSIS":"312.296","SITE":"AFWTR","RCS_SIZE":"LARGE","RA_OF_ASC_NODE":"278.9493","PERIAPSIS":"289.386","INCLINATION":"53.2183","CENTER_NAME":"EARTH","REF_FRAME":"TEME","BSTAR":"-0.00018890000000","PERIOD":"90.537","COUNTRY_CODE":"US","EPHEMERIS_TYPE":"0","CLASSIFICATION_TYPE":"U","TIME_SYSTEM":"UTC","MEAN_ANOMALY":"123.1447","NORAD_CAT_ID":"50202","EPOCH":"2022-01-04T22:00:06.608160","OBJECT_TYPE":"PAYLOAD","FILE":"3264358","ECCENTRICITY":"0.00171510","ELEMENT_SET_NO":"999","TLE_LINE1":"1 50202U 21125AY  22004.91674315 -.00063814  12256-4 -18890-3 0  9997","GP_ID":"193224239","SEMIMAJOR_AXIS":"6678.976","MEAN_MOTION_DDOT":"0.0000122560000","DECAY_DATE":null,"TLE_LINE2":"2 50202  53.2183 278.9493 0017151 236.7937 123.1447 15.90515507  5574"},{"MEAN_ANOMALY":"189.6887","NORAD_CAT_ID":"50203","TIME_SYSTEM":"UTC","EPHEMERIS_TYPE":"0","PERIOD":"91.017","COUNTRY_CODE":"US","CLASSIFICATION_TYPE":"U","TLE_LINE1":"1 50203U 21125AZ  22002.16667824 -.00824748  00000-0 -43313-2 0  9998","DECAY_DATE":null,"TLE_LINE2":"2 50203  53.2177 293.2399 0001106  93.0233 189.6887 15.82113851  2523","GP_ID":"192994661","MEAN_MOTION_DDOT":"0.0000000000000","SEMIMAJOR_AXIS":"6702.601","FILE":"3256392","ECCENTRICITY":"0.00011060","EPOCH":"2022-01-02T04:00:00.999936","OBJECT_TYPE":"PAYLOAD","ELEMENT_SET_NO":"999","MEAN_ELEMENT_THEORY":"SGP4","REV_AT_EPOCH":"252","MEAN_MOTION_DOT":"-0.00824748","OBJECT_NAME":"STARLINK-3257","OBJECT_ID":"2021-125AZ","LAUNCH_DATE":"2021-12-18","REF_FRAME":"TEME","CENTER_NAME":"EARTH","BSTAR":"-0.00433130000000","APOAPSIS":"325.207","SITE":"AFWTR","ARG_OF_PERICENTER":"93.0233","MEAN_MOTION":"15.82113851","PERIAPSIS":"323.724","RA_OF_ASC_NODE":"293.2399","INCLINATION":"53.2177","RCS_SIZE":"MEDIUM"},{"TLE_LINE2":"2 50204  53.2194 279.5718 0003561 169.4568 190.6530 15.78015680  2951","DECAY_DATE":null,"MEAN_MOTION_DDOT":"0.0000000000000","GP_ID":"193224235","SEMIMAJOR_AXIS":"6714.200","TLE_LINE1":"1 50204U 21125BA  22004.89905024 -.00293563  00000-0 -17475-2 0  9993","ELEMENT_SET_NO":"999","FILE":"3264358","ECCENTRICITY":"0.00035610","OBJECT_TYPE":"PAYLOAD","EPOCH":"2022-01-04T21:34:37.940736","NORAD_CAT_ID":"50204","MEAN_ANOMALY":"190.6530","TIME_SYSTEM":"UTC","CLASSIFICATION_TYPE":"U","EPHEMERIS_TYPE":"0","COUNTRY_CODE":"US","PERIOD":"91.254","BSTAR":"-0.00174750000000","REF_FRAME":"TEME","CENTER_NAME":"EARTH","INCLINATION":"53.2194","RA_OF_ASC_NODE":"279.5718","PERIAPSIS":"333.674","RCS_SIZE":"LARGE","SITE":"AFWTR","APOAPSIS":"338.456","MEAN_MOTION":"15.78015680","ARG_OF_PERICENTER":"169.4568","MEAN_MOTION_DOT":"-0.00293563","REV_AT_EPOCH":"295","MEAN_ELEMENT_THEORY":"SGP4","LAUNCH_DATE":"2021-12-18","OBJECT_ID":"2021-125BA","OBJECT_NAME":"STARLINK-3254"},{"BSTAR":"-0.00077676000000","CENTER_NAME":"EARTH","REF_FRAME":"TEME","RCS_SIZE":"LARGE","INCLINATION":"53.2166","RA_OF_ASC_NODE":"277.9704","PERIAPSIS":"269.724","MEAN_MOTION":"15.99445962","ARG_OF_PERICENTER":"258.5098","APOAPSIS":"282.190","SITE":"AFWTR","MEAN_MOTION_DOT":"-0.00401287","REV_AT_EPOCH":"558","MEAN_ELEMENT_THEORY":"SGP4","LAUNCH_DATE":"2021-12-18","OBJECT_ID":"2021-125BB","OBJECT_NAME":"STARLINK-3260","GP_ID":"193224340","SEMIMAJOR_AXIS":"6654.092","MEAN_MOTION_DDOT":"0.0000670530000","TLE_LINE2":"2 50205  53.2166 277.9704 0009367 258.5098 101.4882 15.99445962  5581","DECAY_DATE":null,"TLE_LINE1":"1 50205U 21125BB  22004.88397072 -.00401287  67053-4 -77676-3 0  9990","ELEMENT_SET_NO":"999","EPOCH":"2022-01-04T21:12:55.070208","OBJECT_TYPE":"PAYLOAD","FILE":"3264358","ECCENTRICITY":"0.00093670","TIME_SYSTEM":"UTC","NORAD_CAT_ID":"50205","MEAN_ANOMALY":"101.4882","CLASSIFICATION_TYPE":"U","COUNTRY_CODE":"US","PERIOD":"90.031","EPHEMERIS_TYPE":"0"},{"MEAN_MOTION_DOT":"-0.00418391","REV_AT_EPOCH":"383","MEAN_ELEMENT_THEORY":"SGP4","LAUNCH_DATE":"2021-12-18","OBJECT_ID":"2021-125BC","OBJECT_NAME":"STARLINK-3258","BSTAR":"-0.00238460000000","CENTER_NAME":"EARTH","REF_FRAME":"TEME","RCS_SIZE":"LARGE","INCLINATION":"53.2200","RA_OF_ASC_NODE":"283.6801","PERIAPSIS":"331.338","MEAN_MOTION":"15.79320372","ARG_OF_PERICENTER":"90.5213","SITE":"AFWTR","APOAPSIS":"333.396","TIME_SYSTEM":"UTC","NORAD_CAT_ID":"50206","MEAN_ANOMALY":"269.5985","CLASSIFICATION_TYPE":"U","COUNTRY_CODE":"US","PERIOD":"91.178","EPHEMERIS_TYPE":"0","GP_ID":"193224236","SEMIMAJOR_AXIS":"6710.502","MEAN_MOTION_DDOT":"0.0000000000000","TLE_LINE2":"2 50206  53.2200 283.6801 0001533  90.5213 269.5985 15.79320372  3834","DECAY_DATE":null,"TLE_LINE1":"1 50206U 21125BC  22004.07657149 -.00418391  00000-0 -23846-2 0  9994","ELEMENT_SET_NO":"999","OBJECT_TYPE":"PAYLOAD","EPOCH":"2022-01-04T01:50:15.776736","FILE":"3264358","ECCENTRICITY":"0.00015330"}];
